STARLINK-31731          
1 59498U 24071Q   26068.12869821  .00000134  00000+0  14367-4 0  9990
2 59498  42.9998 342.5812 0000158 254.2936 105.7898 15.27579788108127
FLOCK 4G-29             
1 62642U 25009AK  26068.81464037  .00011147  00000+0  41831-3 0  9994
2 62642  97.4058 151.3683 0001366 288.0502  72.0588 15.27382318 63721
